[
    {
        "Altitude(m)": 705809.288691574,
        "Argument of Periapsis(deg)": 0.004556048474650827,
        "Eccentricity": 0.0,
        "Inclination(deg)": 45.0,
        "Latitude(deg)": 38.26805852367402,
        "Longitude(deg)": 58.02454416765149,
        "Mean Anomaly(deg)": 119.15878665899234,
        "RAAN(deg)": 29.995699223416718,
        "Satellite Name": "Constellation 1 139",
        "Satellite Number": 139,
        "Semi-Major Axis(m)": 7083131.272910544,
        "Time(s)": 76
    },
    {
        "Altitude(m)": 705803.7600781196,
        "Argument of Periapsis(deg)": 0.004615996480896233,
        "Eccentricity": 0.0,
        "Inclination(deg)": 45.0,
        "Latitude(deg)": 38.241337938470565,
        "Longitude(deg)": 58.08977266968581,
        "Mean Anomaly(deg)": 119.21948779924224,
        "RAAN(deg)": 29.995642634251144,
        "Satellite Name": "Constellation 1 139",
        "Satellite Number": 139,
        "Semi-Major Axis(m)": 7083131.272910544,
        "Time(s)": 77
    },
    {
        "Altitude(m)": 705798.2258575421,
        "Argument of Periapsis(deg)": 0.004675944487141638,
        "Eccentricity": 0.0,
        "Inclination(deg)": 45.0,
        "Latitude(deg)": 38.21457631131956,
        "Longitude(deg)": 58.15495043099338,
        "Mean Anomaly(deg)": 119.28018893949212,
        "RAAN(deg)": 29.995586045085574,
        "Satellite Name": "Constellation 1 139",
        "Satellite Number": 139,
        "Semi-Major Axis(m)": 7083131.272910544,
        "Time(s)": 78
    },
    {
        "Altitude(m)": 705792.6860639628,
        "Argument of Periapsis(deg)": 0.004735892493387044,
        "Eccentricity": 0.0,
        "Inclination(deg)": 45.0,
        "Latitude(deg)": 38.18777371081532,
        "Longitude(deg)": 58.220077459883505,
        "Mean Anomaly(deg)": 119.34089007974201,
        "RAAN(deg)": 29.995529455920007,
        "Satellite Name": "Constellation 1 139",
        "Satellite Number": 139,
        "Semi-Major Axis(m)": 7083131.272910544,
        "Time(s)": 79
    },
    {
        "Altitude(m)": 705787.1407315587,
        "Argument of Periapsis(deg)": 0.004795840499632449,
        "Eccentricity": 0.0,
        "Inclination(deg)": 45.0,
        "Latitude(deg)": 38.16093020552173,
        "Longitude(deg)": 58.2851537650197,
        "Mean Anomaly(deg)": 119.40159121999193,
        "RAAN(deg)": 29.99547286675444,
        "Satellite Name": "Constellation 1 139",
        "Satellite Number": 139,
        "Semi-Major Axis(m)": 7083131.272910544,
        "Time(s)": 80
    },
    {
        "Altitude(m)": 705781.5898945471,
        "Argument of Periapsis(deg)": 0.004855788505877855,
        "Eccentricity": 0.0,
        "Inclination(deg)": 45.0,
        "Latitude(deg)": 38.134045863972055,
        "Longitude(deg)": 58.350179355417694,
        "Mean Anomaly(deg)": 119.46229236024185,
        "RAAN(deg)": 29.995416277588866,
        "Satellite Name": "Constellation 1 139",
        "Satellite Number": 139,
        "Semi-Major Axis(m)": 7083131.272910544,
        "Time(s)": 81
    },
    {
        "Altitude(m)": 705776.0335871823,
        "Argument of Periapsis(deg)": 0.00491573651212326,
        "Eccentricity": 0.0,
        "Inclination(deg)": 45.0,
        "Latitude(deg)": 38.10712075466811,
        "Longitude(deg)": 58.41515407234723,
        "Mean Anomaly(deg)": 119.52299350049174,
        "RAAN(deg)": 29.995359688423303,
        "Satellite Name": "Constellation 1 139",
        "Satellite Number": 139,
        "Semi-Major Axis(m)": 7083131.272910544,
        "Time(s)": 82
    },
    {
        "Altitude(m)": 705770.4718437745,
        "Argument of Periapsis(deg)": 0.004975684518368666,
        "Eccentricity": 0.0,
        "Inclination(deg)": 45.0,
        "Latitude(deg)": 38.08015494608061,
        "Longitude(deg)": 58.48007826171959,
        "Mean Anomaly(deg)": 119.58369464074164,
        "RAAN(deg)": 29.99530309925773,
        "Satellite Name": "Constellation 1 139",
        "Satellite Number": 139,
        "Semi-Major Axis(m)": 7083131.272910544,
        "Time(s)": 83
    },
    {
        "Altitude(m)": 705764.9046986593,
        "Argument of Periapsis(deg)": 0.005035632524614072,
        "Eccentricity": 0.0,
        "Inclination(deg)": 45.0,
        "Latitude(deg)": 38.05314850664783,
        "Longitude(deg)": 58.54495176550196,
        "Mean Anomaly(deg)": 119.64439578099152,
        "RAAN(deg)": 29.99524651009216,
        "Satellite Name": "Constellation 1 139",
        "Satellite Number": 139,
        "Semi-Major Axis(m)": 7083131.272910544,
        "Time(s)": 84
    },
    {
        "Altitude(m)": 705759.3321862231,
        "Argument of Periapsis(deg)": 0.0050955805308594785,
        "Eccentricity": 0.0,
        "Inclination(deg)": 45.0,
        "Latitude(deg)": 38.02610150477561,
        "Longitude(deg)": 58.6097745941059,
        "Mean Anomaly(deg)": 119.70509692124143,
        "RAAN(deg)": 29.995189920926585,
        "Satellite Name": "Constellation 1 139",
        "Satellite Number": 139,
        "Semi-Major Axis(m)": 7083131.272910544,
        "Time(s)": 85
    },
    {
        "Altitude(m)": 705753.7543409,
        "Argument of Periapsis(deg)": 0.005155528537104883,
        "Eccentricity": 0.0,
        "Inclination(deg)": 45.0,
        "Latitude(deg)": 37.999014008836944,
        "Longitude(deg)": 58.674546758288045,
        "Mean Anomaly(deg)": 119.76579806149132,
        "RAAN(deg)": 29.99513333176102,
        "Satellite Name": "Constellation 1 139",
        "Satellite Number": 139,
        "Semi-Major Axis(m)": 7083131.272910544,
        "Time(s)": 86
    },
    {
        "Altitude(m)": 705748.1711971537,
        "Argument of Periapsis(deg)": 0.0052154765433502885,
        "Eccentricity": 0.0,
        "Inclination(deg)": 45.0,
        "Latitude(deg)": 37.971886087171534,
        "Longitude(deg)": 58.739268269148916,
        "Mean Anomaly(deg)": 119.82649920174126,
        "RAAN(deg)": 29.995076742595447,
        "Satellite Name": "Constellation 1 139",
        "Satellite Number": 139,
        "Semi-Major Axis(m)": 7083131.272910544,
        "Time(s)": 87
    },
    {
        "Altitude(m)": 705742.5827894979,
        "Argument of Periapsis(deg)": 0.005275424549595694,
        "Eccentricity": 0.0,
        "Inclination(deg)": 45.0,
        "Latitude(deg)": 37.94471780808532,
        "Longitude(deg)": 58.80393913813115,
        "Mean Anomaly(deg)": 119.88720034199113,
        "RAAN(deg)": 29.99502015342988,
        "Satellite Name": "Constellation 1 139",
        "Satellite Number": 139,
        "Semi-Major Axis(m)": 7083131.272910544,
        "Time(s)": 88
    },
    {
        "Altitude(m)": 705736.9891524817,
        "Argument of Periapsis(deg)": 0.0053353725558411,
        "Eccentricity": 0.0,
        "Inclination(deg)": 45.0,
        "Latitude(deg)": 37.91750923984989,
        "Longitude(deg)": 58.86855920892125,
        "Mean Anomaly(deg)": 119.94790148224104,
        "RAAN(deg)": 29.99496356426431,
        "Satellite Name": "Constellation 1 139",
        "Satellite Number": 139,
        "Semi-Major Axis(m)": 7083131.272910544,
        "Time(s)": 89
    },
    {
        "Altitude(m)": 705731.3903207061,
        "Argument of Periapsis(deg)": 0.005395320562086505,
        "Eccentricity": 0.0,
        "Inclination(deg)": 45.0,
        "Latitude(deg)": 37.89026045070283,
        "Longitude(deg)": 58.93312882983678,
        "Mean Anomaly(deg)": 120.00860262249091,
        "RAAN(deg)": 29.994906975098743,
        "Satellite Name": "Constellation 1 139",
        "Satellite Number": 139,
        "Semi-Major Axis(m)": 7083131.272910544,
        "Time(s)": 90
    },
    {
        "Altitude(m)": 705725.7863287977,
        "Argument of Periapsis(deg)": 0.00545526856833191,
        "Eccentricity": 0.0,
        "Inclination(deg)": 45.0,
        "Latitude(deg)": 37.862971508846194,
        "Longitude(deg)": 58.997647845241545,
        "Mean Anomaly(deg)": 120.06930376274083,
        "RAAN(deg)": 29.99485038593317,
        "Satellite Name": "Constellation 1 139",
        "Satellite Number": 139,
        "Semi-Major Axis(m)": 7083131.272910544,
        "Time(s)": 91
    },
    {
        "Altitude(m)": 705720.1772114413,
        "Argument of Periapsis(deg)": 0.005515216574577317,
        "Eccentricity": 0.0,
        "Inclination(deg)": 45.0,
        "Latitude(deg)": 37.83564248244682,
        "Longitude(deg)": 59.06211626793324,
        "Mean Anomaly(deg)": 120.13000490299072,
        "RAAN(deg)": 29.994793796767606,
        "Satellite Name": "Constellation 1 139",
        "Satellite Number": 139,
        "Semi-Major Axis(m)": 7083131.272910544,
        "Time(s)": 92
    },
    {
        "Altitude(m)": 705714.5630033461,
        "Argument of Periapsis(deg)": 0.005575164580822722,
        "Eccentricity": 0.0,
        "Inclination(deg)": 45.0,
        "Latitude(deg)": 37.808273439635784,
        "Longitude(deg)": 59.12653411104436,
        "Mean Anomaly(deg)": 120.19070604324064,
        "RAAN(deg)": 29.994737207602032,
        "Satellite Name": "Constellation 1 139",
        "Satellite Number": 139,
        "Semi-Major Axis(m)": 7083131.272910544,
        "Time(s)": 93
    },
    {
        "Altitude(m)": 705708.943739274,
        "Argument of Periapsis(deg)": 0.005635112587068129,
        "Eccentricity": 0.0,
        "Inclination(deg)": 45.0,
        "Latitude(deg)": 37.78086444850788,
        "Longitude(deg)": 59.19090138804127,
        "Mean Anomaly(deg)": 120.25140718349053,
        "RAAN(deg)": 29.994680618436465,
        "Satellite Name": "Constellation 1 139",
        "Satellite Number": 139,
        "Semi-Major Axis(m)": 7083131.272910544,
        "Time(s)": 94
    }
]